IRIDIUM 144             
1 43249U 18030A   25250.94716869  .00000343  00000+0  11538-3 0  9998
2 43249  86.3942  48.3743 0002205  90.3798 269.7651 14.34218527389687
IRIDIUM 149             
1 43250U 18030B   25250.95351124  .00000010  00000+0 -35189-5 0  9992
2 43250  86.3939  48.3421 0002116  89.6661 270.4777 14.34217357389700
IRIDIUM 157             
1 43251U 18030C   25250.90276938  .00000038  00000+0  65253-5 0  9991
2 43251  86.3944  48.4100 0001958  87.9742 272.1678 14.34217937389675
IRIDIUM 140             
1 43252U 18030D   25250.92179779  .00000006  00000+0 -50493-5 0  9995
2 43252  86.3939  48.4155 0002169  93.7028 266.4415 14.34218388389730
IRIDIUM 145             
1 43253U 18030E   25250.90911324  .00000077  00000+0  20461-4 0  9992
2 43253  86.3942  48.3932 0002574  88.8612 271.2879 14.34217163389661
IRIDIUM 146             
1 43254U 18030F   25250.89008535  .00000333  00000+0  11168-3 0  9990
2 43254  86.3943  48.4146 0002473  89.2123 270.9356 14.34218632389670
IRIDIUM 148             
1 43255U 18030G   25250.92813984 -.00000041  00000+0 -21560-4 0  9993
2 43255  86.3940  48.4375 0002024  86.9606 273.1822 14.34217185389714
IRIDIUM 142             
1 43256U 18030H   25250.82666015  .00000235  00000+0  76816-4 0  9991
2 43256  86.3940  48.3791 0002615  87.3315 272.8180 14.34218487389667
